OBJECT_NAME,OBJECT_ID,EPOCH,MEAN_MOTION,ECCENTRICITY,INCLINATION,RA_OF_ASC_NODE,ARG_OF_PERICENTER,MEAN_ANOMALY,EPHEMERIS_TYPE,CLASSIFICATION_TYPE,NORAD_CAT_ID,ELEMENT_SET_NO,REV_AT_EPOCH,BSTAR,MEAN_MOTION_DOT,MEAN_MOTION_DDOT
KUZGTU 1 (RS47S),2023-091AV,2026-07-15T03:41:01.608576,15.30469817,.0010087,97.5052,260.9279,6.4282,353.7086,0,U,57217,999,16865,.22817E-3,.6653E-4,0
SONATE-2,2024-043Q,2026-07-14T23:32:44.086848,15.60816230,.0006869,97.5555,348.1306,107.3593,252.8416,0,U,59112,999,13222,.31885E-3,.26524E-3,0
MESAT1,2024-125G,2026-07-15T02:46:31.556064,15.66429058,.0010931,97.2245,54.2953,112.6262,247.6156,0,U,60209,999,11393,.41615E-3,.43354E-3,0
OOV-CUBE (TUBSAT-30),2024-128F,2026-07-15T03:12:55.725120,15.02873623,.0041119,61.9938,128.1158,140.0187,220.3944,0,U,60240,999,11031,.87108E-4,.978E-5,0
COLIBRI-S (RS67S),2024-199M,2026-07-15T04:12:51.866784,15.48850118,.0008989,97.2950,70.3020,162.3222,197.8343,0,U,61746,999,14174,.25612E-3,.1372E-3,0
HORS 3 (RS81S),2024-199U,2026-07-15T04:38:53.899296,15.56906024,.0007179,97.2932,72.6262,155.9256,204.2336,0,U,61753,999,14191,.35347E-3,.25385E-3,0
HORS 4 (RS82S),2024-199V,2026-07-15T04:35:31.368192,15.62385381,.0007025,97.2873,74.0213,148.3591,211.8090,0,U,61754,999,14201,.40204E-3,.35606E-3,0
SIT-2086,2024-199AF,2026-07-15T03:23:55.898016,15.55016477,.0008257,97.2888,72.9525,144.6285,215.5519,0,U,61764,999,13877,.36853E-3,.24696E-3,0
HYPERVIEW 1G (RS66S),2024-199AP,2026-07-15T04:16:20.764704,15.85329283,.0008253,97.2794,77.4918,148.6135,211.5630,0,U,61772,999,13909,.72983E-3,.176329E-2,0
ALTAIR (RS65S),2024-199AW,2026-07-15T04:00:16.047360,15.37506225,.0012025,97.2991,65.3378,196.6185,163.4668,0,U,61779,999,14141,.17866E-3,.6505E-4,0
ASRTU-1 (AO-123),2024-199AY,2026-07-15T04:19:39.950400,15.36053369,.0013015,97.2961,64.6009,200.6637,159.4082,0,U,61781,999,13822,.1225E-3,.423E-4,0
SAMSAT-IONOSPHERE (RS75S),2024-199BB,2026-07-15T04:12:08.404128,15.60120901,.0009243,97.2896,72.7663,160.2874,199.8742,0,U,61784,999,14192,.38843E-3,.31541E-3,0
RTU MIREA 1 (RS51S),2024-199BC,2026-07-15T04:41:36.225888,15.64274683,.0009303,97.2882,73.7768,155.0841,205.0870,0,U,61785,999,13884,.46679E-3,.44617E-3,0
TEVEL2-4,2025-052D,2026-07-15T03:30:38.473632,15.35565165,.000354,97.3870,92.5984,51.9364,308.2199,0,U,63213,999,7440,.31215E-3,.10715E-3,0
TEVEL2-5,2025-052E,2026-07-15T04:04:51.939840,15.35379345,.0003594,97.3866,92.5619,53.2255,306.9318,0,U,63214,999,7440,.30278E-3,.10329E-3,0
TEVEL2-6,2025-052F,2026-07-14T15:52:44.170176,15.35331616,.00036805,97.3876,92.0373,56.3552,303.8042,0,U,63215,999,7432,.32053588E-3,.10923E-3,0
TEVEL2-1,2025-052H,2026-07-14T15:14:51.352512,15.34761887,.0004319,97.3847,91.6018,61.6960,298.4718,0,U,63217,999,7430,.2955724E-3,.9885E-4,0
TEVEL2-3,2025-052J,2026-07-15T03:36:40.341024,15.34835081,.000401,97.3848,92.1430,61.9353,298.2295,0,U,63218,999,7438,.30378E-3,.10185E-3,0
TEVEL2-2,2025-052K,2026-07-15T03:46:07.684032,15.34784029,.0004324,97.3840,92.1268,60.5637,299.6037,0,U,63219,999,7438,.30238E-3,.10122E-3,0
OTP-2,2025-052AB,2026-07-14T22:22:15.148128,15.24335037,.0008218,97.3836,87.9499,71.7464,288.4667,0,U,63235,999,7409,.1562E-3,.3753E-4,0
TEVEL2-9,2025-052AD,2026-07-15T04:06:36.235008,15.32732268,.0007676,97.3907,91.4540,57.3329,302.8652,0,U,63237,999,7431,.29751E-3,.9336E-4,0
TEVEL2-7,2025-052AE,2026-07-15T03:39:30.098016,15.32415280,.0007756,97.3906,91.3390,56.8395,303.3590,0,U,63238,999,7430,.29113E-3,.9043E-4,0
TEVEL2-8,2025-052AF,2026-07-15T03:51:46.384128,15.32400496,.0007797,97.3906,91.3237,57.8563,302.3435,0,U,63239,999,7430,.28216E-3,.8758E-4,0
INNOSAT 16 (RS92S7),2025-155C,2026-07-15T03:21:49.466304,15.25738129,.0012482,97.4583,163.1873,88.6312,271.6356,0,U,64878,999,8493,.1252E-3,.3126E-4,0
GEOSCAN 6 (RS92S6),2025-155D,2026-07-15T03:58:57.049248,15.30653895,.0009953,97.4572,164.8390,82.2253,278.0117,0,U,64879,999,8504,.19464E-3,.5697E-4,0
GEOSCAN 1 (RS92S1),2025-155E,2026-07-15T03:46:05.041920,15.31301637,.0009898,97.4568,165.0034,82.5048,277.7317,0,U,64880,999,8505,.20897E-3,.6247E-4,0
239ALFEROV (RS61S),2025-155F,2026-07-15T03:36:28.199232,15.33669241,.0009609,97.4568,165.6557,82.3182,277.9151,0,U,64881,999,8509,.26055E-3,.8414E-4,0
GEOSCAN 2 (RS92S2),2025-155Q,2026-07-15T03:30:04.265280,15.31559162,.0009059,97.4567,165.1555,72.7241,287.4991,0,U,64890,999,8506,.20837E-3,.6278E-4,0
GEOSCAN 5 (RS92S5),2025-155R,2026-07-15T04:46:23.655360,15.33975987,.0008649,97.4559,165.8527,86.6857,273.5375,0,U,64891,999,8511,.26127E-3,.8517E-4,0
GEOSCAN 4 (RS92S4),2025-155S,2026-07-15T04:19:24.712896,15.34143216,.0008554,97.4563,165.8906,87.0223,273.1998,0,U,64892,999,8511,.25534E-3,.8366E-4,0
