KUZGTU 1 (RS47S)        
1 57217U 23091AV  26196.15349084  .00006653  00000+0  22817-3 0  9997
2 57217  97.5052 260.9279 0010087   6.4282 353.7086 15.30469817168657
SONATE-2                
1 59112U 24043Q   26195.98106582  .00026524  00000+0  31885-3 0  9999
2 59112  97.5555 348.1306 0006869 107.3593 252.8416 15.60816230132228
MESAT1                  
1 60209U 24125G   26196.11564301  .00043354  00000+0  41615-3 0  9994
2 60209  97.2245  54.2953 0010931 112.6262 247.6156 15.66429058113934
OOV-CUBE (TUBSAT-30)    
1 60240U 24128F   26196.13397830  .00000978  00000+0  87108-4 0  9998
2 60240  61.9938 128.1158 0041119 140.0187 220.3944 15.02873623110310
COLIBRI-S (RS67S)       
1 61746U 24199M   26196.17560031  .00013720  00000+0  25612-3 0  9997
2 61746  97.2950  70.3020 0008989 162.3222 197.8343 15.48850118141745
HORS 3 (RS81S)          
1 61753U 24199U   26196.19367939  .00025385  00000+0  35347-3 0  9995
2 61753  97.2932  72.6262 0007179 155.9256 204.2336 15.56906024141912
HORS 4 (RS82S)          
1 61754U 24199V   26196.19133528  .00035606  00000+0  40204-3 0  9996
2 61754  97.2873  74.0213 0007025 148.3591 211.8090 15.62385381142014
SIT-2086                
1 61764U 24199AF  26196.14161919  .00024696  00000+0  36853-3 0  9999
2 61764  97.2888  72.9525 0008257 144.6285 215.5519 15.55016477138775
HYPERVIEW 1G (RS66S)    
1 61772U 24199AP  26196.17801811  .00176329  00000+0  72983-3 0  9998
2 61772  97.2794  77.4918 0008253 148.6135 211.5630 15.85329283139091
ALTAIR (RS65S)          
1 61779U 24199AW  26196.16685240  .00006505  00000+0  17866-3 0  9997
2 61779  97.2991  65.3378 0012025 196.6185 163.4668 15.37506225141418
ASRTU-1 (AO-123)        
1 61781U 24199AY  26196.18032350  .00004230  00000+0  12250-3 0  9995
2 61781  97.2961  64.6009 0013015 200.6637 159.4082 15.36053369138224
SAMSAT-IONOSPHERE (RS7*)
1 61784U 24199BB  26196.17509727  .00031541  00000+0  38843-3 0  9995
2 61784  97.2896  72.7663 0009243 160.2874 199.8742 15.60120901141928
RTU MIREA 1 (RS51S)     
1 61785U 24199BC  26196.19555817  .00044617  00000+0  46679-3 0  9993
2 61785  97.2882  73.7768 0009303 155.0841 205.0870 15.64274683138844
TEVEL2-4                
1 63213U 25052D   26196.14627863  .00010715  00000+0  31215-3 0  9998
2 63213  97.3870  92.5984 0003540  51.9364 308.2199 15.35565165 74407
TEVEL2-5                
1 63214U 25052E   26196.17004560  .00010329  00000+0  30278-3 0  9994
2 63214  97.3866  92.5619 0003594  53.2255 306.9318 15.35379345 74402
TEVEL2-6                
1 63215U 25052F   26195.66162234  .00010923  00000+0  32054-3 0  9995
2 63215  97.3876  92.0373 0003680  56.3552 303.8042 15.35331616 74326
TEVEL2-1                
1 63217U 25052H   26195.63531658  .00009885  00000+0  29557-3 0  9993
2 63217  97.3847  91.6018 0004319  61.6960 298.4718 15.34761887 74302
TEVEL2-3                
1 63218U 25052J   26196.15046691  .00010185  00000+0  30378-3 0  9998
2 63218  97.3848  92.1430 0004010  61.9353 298.2295 15.34835081 74389
TEVEL2-2                
1 63219U 25052K   26196.15703338  .00010122  00000+0  30238-3 0  9993
2 63219  97.3840  92.1268 0004324  60.5637 299.6037 15.34784029 74383
OTP-2                   
1 63235U 25052AB  26195.93211977  .00003753  00000+0  15620-3 0  9999
2 63235  97.3836  87.9499 0008218  71.7464 288.4667 15.24335037 74095
TEVEL2-9                
1 63237U 25052AD  26196.17125272  .00009336  00000+0  29751-3 0  9993
2 63237  97.3907  91.4540 0007676  57.3329 302.8652 15.32732268 74316
TEVEL2-7                
1 63238U 25052AE  26196.15243169  .00009043  00000+0  29113-3 0  9995
2 63238  97.3906  91.3390 0007756  56.8395 303.3590 15.32415280 74302
TEVEL2-8                
1 63239U 25052AF  26196.16095352  .00008758  00000+0  28216-3 0  9991
2 63239  97.3906  91.3237 0007797  57.8563 302.3435 15.32400496 74306
INNOSAT 16 (RS92S7)     
1 64878U 25155C   26196.14015586  .00003126  00000+0  12520-3 0  9999
2 64878  97.4583 163.1873 0012482  88.6312 271.6356 15.25738129 84932
GEOSCAN 6 (RS92S6)      
1 64879U 25155D   26196.16593807  .00005697  00000+0  19464-3 0  9998
2 64879  97.4572 164.8390 0009953  82.2253 278.0117 15.30653895 85047
GEOSCAN 1 (RS92S1)      
1 64880U 25155E   26196.15700280  .00006247  00000+0  20897-3 0  9998
2 64880  97.4568 165.0034 0009898  82.5048 277.7317 15.31301637 85059
239ALFEROV (RS61S)      
1 64881U 25155F   26196.15032638  .00008414  00000+0  26055-3 0  9994
2 64881  97.4568 165.6557 0009609  82.3182 277.9151 15.33669241 85095
GEOSCAN 2 (RS92S2)      
1 64890U 25155Q   26196.14588270  .00006278  00000+0  20837-3 0  9999
2 64890  97.4567 165.1555 0009059  72.7241 287.4991 15.31559162 85068
GEOSCAN 5 (RS92S5)      
1 64891U 25155R   26196.19888490  .00008517  00000+0  26127-3 0  9998
2 64891  97.4559 165.8527 0008649  86.6857 273.5375 15.33975987 85114
GEOSCAN 4 (RS92S4)      
1 64892U 25155S   26196.18014714  .00008366  00000+0  25534-3 0  9991
2 64892  97.4563 165.8906 0008554  87.0223 273.1998 15.34143216 85118
